[{"OBJECT_NAME":"IONOSFERA-M 1","OBJECT_ID":"2024-199A","EPOCH":"2026-03-09T23:07:06.038112","MEAN_MOTION":14.22735344,"ECCENTRICITY":0.00020871,"INCLINATION":98.7325,"RA_OF_ASC_NODE":303.1052,"ARG_OF_PERICENTER":75.9685,"MEAN_ANOMALY":284.1725,"EPHEMERIS_TYPE":0,"CLASSIFICATION_TYPE":"U","NORAD_CAT_ID":61735,"ELEMENT_SET_NO":999,"REV_AT_EPOCH":11359,"BSTAR":4.8219719e-5,"MEAN_MOTION_DOT":6.4e-7,"MEAN_MOTION_DDOT":0},{"OBJECT_NAME":"UGATUSAT","OBJECT_ID":"2009-049E","EPOCH":"2026-03-09T21:22:13.890720","MEAN_MOTION":14.2319034,"ECCENTRICITY":0.00036093,"INCLINATION":98.7283,"RA_OF_ASC_NODE":31.4965,"ARG_OF_PERICENTER":220.0875,"MEAN_ANOMALY":140.0037,"EPHEMERIS_TYPE":0,"CLASSIFICATION_TYPE":"U","NORAD_CAT_ID":35869,"ELEMENT_SET_NO":999,"REV_AT_EPOCH":85530,"BSTAR":8.7215786e-5,"MEAN_MOTION_DOT":1.53e-6,"MEAN_MOTION_DDOT":0}]
